NORAD_CAT_ID,OBJECT_NAME,OBJECT_TYPE,EPOCH,MEAN_MOTION,ECCENTRICITY,INCLINATION,RA_OF_ASC_NODE,ARG_OF_PERICENTER,MEAN_ANOMALY,BSTAR,MEAN_MOTION_DOT,MEAN_MOTION_DDOT,TLE_LINE0,TLE_LINE1,TLE_LINE2,SEMIMAJOR_AXIS,PERIOD,APOGEE,PERIGEE,DECAYED
55392.0,STARLINK-5085,PAYLOAD,2024-06-16 11:44:33,14.98331418,0.0003707,69.9986,195.8251,267.0786,92.9949,2.2505e-05,1.75e-06,0.0,0 STARLINK-5085,1 55392U 23014B   24168.48927581  .00000175  00000-0  22505-4 0  9990,2 55392  69.9986 195.8251 0003707 267.0786  92.9949 14.98331418 77061,6950.189,96.107,574.63,569.477,0.0
55392.0,STARLINK-5085,PAYLOAD,2024-06-17 11:46:34,14.98330649,0.0003708,69.9985,193.3003,267.2397,92.8338,-8.8925e-06,-1.99e-06,0.0,0 STARLINK-5085,1 55392U 23014B   24169.49067653 -.00000199  00000-0 -88925-5 0  9994,2 55392  69.9985 193.3003 0003708 267.2397  92.8338 14.98330649 77212,6950.191,96.107,574.633,569.479,0.0
55392.0,STARLINK-5085,PAYLOAD,2024-06-18 11:48:35,14.98333034,0.0003721,69.9984,190.7754,267.3814,92.6919,6.6253e-05,6.98e-06,0.0,0 STARLINK-5085,1 55392U 23014B   24170.49207212  .00000698  00000-0  66253-4 0  9994,2 55392  69.9984 190.7754 0003721 267.3814  92.6919 14.98333034 77365,6950.184,96.107,574.635,569.462,0.0
55392.0,STARLINK-5085,PAYLOAD,2024-06-18 18:13:07,14.98330334,0.0003719,69.9985,190.1019,267.7034,92.3699,3.0029e-05,2.65e-06,0.0,0 STARLINK-5085,1 55392U 23014B   24170.75911442  .00000265  00000-0  30029-4 0  9992,2 55392  69.9985 190.1019 0003719 267.7034  92.3699 14.98330334 78340,6950.192,96.107,574.642,569.472,0.0
55392.0,STARLINK-5085,PAYLOAD,2024-06-19 05:26:04,14.98326623,0.0003727,69.9984,188.9231,270.0624,90.0108,4.289e-06,-4.2e-07,0.0,0 STARLINK-5085,1 55392U 23014B   24171.22643778 -.00000042  00000-0  42890-5 0  9993,2 55392  69.9984 188.9231 0003727 270.0624  90.0108 14.98326623 77470,6950.203,96.107,574.659,569.478,0.0
55392.0,STARLINK-5085,PAYLOAD,2024-06-19 10:14:28,14.98327705,0.0003711,69.9985,188.4182,270.0386,90.0348,1.5365e-05,9e-07,0.0,0 STARLINK-5085,1 55392U 23014B   24171.42671706  .00000090  00000-0  15365-4 0  9995,2 55392  69.9985 188.4182 0003711 270.0386  90.0348 14.98327705 78445,6950.2,96.107,574.644,569.486,0.0
55392.0,STARLINK-5085,PAYLOAD,2024-06-19 18:15:08,14.9832931,0.0003716,69.9985,187.5766,269.7295,90.3438,1.6349e-05,1.02e-06,0.0,0 STARLINK-5085,1 55392U 23014B   24171.76051610  .00000102  00000-0  16349-4 0  9995,2 55392  69.9985 187.5766 0003716 269.7295  90.3438 14.98329310 78494,6950.195,96.107,574.643,569.477,0.0
55392.0,STARLINK-5085,PAYLOAD,2024-06-20 05:28:04,14.98330826,0.0003707,69.9985,186.3983,269.0375,91.0359,-4.2365e-06,-1.44e-06,0.0,0 STARLINK-5085,1 55392U 23014B   24172.22783539 -.00000144  00000-0 -42365-5 0  9995,2 55392  69.9985 186.3983 0003707 269.0375  91.0359 14.98330826 77622,6950.19,96.107,574.632,569.479,0.0
55392.0,STARLINK-5085,PAYLOAD,2024-06-20 10:16:29,14.98330894,0.0003701,69.9985,185.894,267.4427,92.6308,-7.448e-06,-1.82e-06,0.0,0 STARLINK-5085,1 55392U 23014B   24172.42811518 -.00000182  00000-0 -74480-5 0  9991,2 55392  69.9985 185.8940 0003701 267.4427  92.6308 14.98330894 78596,6950.19,96.107,574.627,569.483,0.0
55392.0,STARLINK-5085,PAYLOAD,2024-06-21 10:18:30,14.98329339,0.0003722,69.9986,183.369,267.1162,92.9571,6.6184e-05,6.97e-06,0.0,0 STARLINK-5085,1 55392U 23014B   24173.42951401  .00000697  00000-0  66184-4 0  9998,2 55392  69.9986 183.3690 0003722 267.1162  92.9571 14.98329339 77808,6950.195,96.107,574.647,569.473,0.0
55392.0,STARLINK-5085,PAYLOAD,2024-06-22 10:20:31,14.98329589,0.0003754,69.9988,180.8444,267.1847,92.8882,1.8111e-05,1.23e-06,0.0,0 STARLINK-5085,1 55392U 23014B   24174.43091521  .00000123  00000-0  18111-4 0  9999,2 55392  69.9988 180.8444 0003754 267.1847  92.8882 14.98329589 77951,6950.194,96.107,574.668,569.45,0.0
55392.0,STARLINK-5085,PAYLOAD,2024-06-23 10:22:31,14.98332294,0.0003751,69.9991,178.3194,267.5079,92.5651,2.8521e-05,2.47e-06,0.0,0 STARLINK-5085,1 55392U 23014B   24175.43231277  .00000247  00000-0  28521-4 0  9997,2 55392  69.9991 178.3194 0003751 267.5079  92.5651 14.98332294 78103,6950.186,96.107,574.658,569.444,0.0
55392.0,STARLINK-5085,PAYLOAD,2024-06-24 10:24:32,14.98333095,0.0003729,69.9993,175.7947,267.9517,92.1215,7.1278e-05,7.58e-06,0.0,0 STARLINK-5085,1 55392U 23014B   24176.43370971  .00000758  00000-0  71278-4 0  9997,2 55392  69.9993 175.7947 0003729 267.9517  92.1215 14.98333095 78256,6950.183,96.107,574.64,569.457,0.0
55392.0,STARLINK-5085,PAYLOAD,2024-06-25 08:50:25,14.98329036,0.0003619,69.9995,173.4385,264.6478,95.4269,3.1283e-06,-5.6e-07,0.0,0 STARLINK-5085,1 55392U 23014B   24177.36835342 -.00000056  00000-0  31283-5 0  9993,2 55392  69.9995 173.4385 0003619 264.6478  95.4269 14.98329036 78397,6950.196,96.107,574.576,569.546,0.0
55392.0,STARLINK-5085,PAYLOAD,2024-06-26 08:52:26,14.98331843,0.0003575,69.9996,170.9141,260.8734,99.2021,6.7789e-06,-1.2e-07,0.0,0 STARLINK-5085,1 55392U 23014B   24178.36975074 -.00000012  00000-0  67789-5 0  9993,2 55392  69.9996 170.9141 0003575 260.8734  99.2021 14.98331843 78548,6950.187,96.107,574.537,569.567,0.0
55392.0,STARLINK-5085,PAYLOAD,2024-06-27 08:54:27,14.98331659,0.0003675,69.9994,168.3893,266.5124,93.5615,6.4306e-05,6.74e-06,0.0,0 STARLINK-5085,1 55392U 23014B   24179.37114951  .00000674  00000-0  64306-4 0  9998,2 55392  69.9994 168.3893 0003675 266.5124  93.5615 14.98331659 78695,6950.188,96.107,574.607,569.499,0.0
55392.0,STARLINK-5085,PAYLOAD,2024-06-27 16:55:07,14.98330859,0.0003686,69.9993,167.547,268.0607,92.013,3.7397e-05,3.53e-06,0.0,0 STARLINK-5085,1 55392U 23014B   24179.70495069  .00000353  00000-0  37397-4 0  9991,2 55392  69.9993 167.5470 0003686 268.0607  92.0130 14.98330859 79688,6950.19,96.107,574.617,569.493,0.0
55392.0,STARLINK-5085,PAYLOAD,2024-06-28 08:56:28,14.98329893,0.00036,69.9995,165.8639,267.5208,92.5539,3.1e-05,2.77e-06,0.0,0 STARLINK-5085,1 55392U 23014B   24180.37255221  .00000277  00000-0  31000-4 0  9990,2 55392  69.9995 165.8639 0003600 267.5208  92.5539 14.98329893 78846,6950.193,96.107,574.56,569.556,0.0
55392.0,STARLINK-5085,PAYLOAD,2024-06-29 08:58:28,14.98337381,0.0003597,69.9995,163.3393,267.4153,92.6595,9.6167e-05,1.055e-05,0.0,0 STARLINK-5085,1 55392U 23014B   24181.37394471  .00001055  00000-0  96167-4 0  9992,2 55392  69.9995 163.3393 0003597 267.4153  92.6595 14.98337381 78999,6950.17,96.107,574.535,569.535,0.0
55392.0,STARLINK-5085,PAYLOAD,2024-06-30 05:48:14,14.9832847,0.0003456,69.9999,161.1521,265.6552,94.4212,4.0394e-05,3.89e-06,0.0,0 STARLINK-5085,1 55392U 23014B   24182.24183179  .00000389  00000-0  40394-4 0  9990,2 55392  69.9999 161.1521 0003456 265.6552  94.4212 14.98328470 79120,6950.198,96.107,574.465,569.661,0.0
55392.0,STARLINK-5085,PAYLOAD,2024-06-30 09:00:30,14.98330487,0.0003435,69.9998,160.8151,265.9306,94.146,6.1266e-05,6.38e-06,0.0,0 STARLINK-5085,1 55392U 23014B   24182.37535005  .00000638  00000-0  61266-4 0  9991,2 55392  69.9998 160.8151 0003435 265.9306  94.1460 14.98330487 80081,6950.191,96.107,574.444,569.669,0.0
55392.0,STARLINK-5085,PAYLOAD,2024-06-30 15:25:02,14.983311,0.0003418,69.9999,160.1419,265.7629,94.3139,5.1283e-05,5.19e-06,0.0,0 STARLINK-5085,1 55392U 23014B   24182.64238978  .00000519  00000-0  51283-4 0  9996,2 55392  69.9999 160.1419 0003418 265.7629  94.3139 14.98331100 80122,6950.189,96.107,574.43,569.679,0.0
55392.0,STARLINK-5085,PAYLOAD,2024-07-01 09:02:30,14.98335633,0.0003261,70.0002,158.2911,264.0911,95.9877,3.3639e-05,3.08e-06,0.0,0 STARLINK-5085,1 55392U 23014B   24183.37674649  .00000308  00000-0  33639-4 0  9997,2 55392  70.0002 158.2911 0003261 264.0911  95.9877 14.98335633 79294,6950.175,96.107,574.307,569.774,0.0
55392.0,STARLINK-5085,PAYLOAD,2024-07-01 15:27:03,14.98330692,0.0003263,70.0003,157.6173,266.7074,93.3712,2.0013e-05,1.46e-06,0.0,0 STARLINK-5085,1 55392U 23014B   24183.64378959  .00000146  00000-0  20013-4 0  9994,2 55392  70.0003 157.6173 0003263 266.7074  93.3712 14.98330692 80279,6950.191,96.107,574.324,569.788,0.0
55392.0,STARLINK-5085,PAYLOAD,2024-07-02 04:16:08,14.98327721,0.0003274,70.0001,156.2708,266.9301,93.1484,3.1704e-05,2.85e-06,0.0,0 STARLINK-5085,1 55392U 23014B   24184.17787164  .00000285  00000-0  31704-4 0  9998,2 55392  70.0001 156.2708 0003274 266.9301  93.1484 14.98327721 79410,6950.2,96.107,574.34,569.789,0.0
55392.0,STARLINK-5085,PAYLOAD,2024-07-02 07:28:24,14.98329293,0.0003255,70.0001,155.9341,267.5664,92.5122,4.8193e-05,4.82e-06,0.0,0 STARLINK-5085,1 55392U 23014B   24184.31139038  .00000482  00000-0  48193-4 0  9994,2 55392  70.0001 155.9341 0003255 267.5664  92.5122 14.98329293 80372,6950.195,96.107,574.322,569.798,0.0
55392.0,STARLINK-5085,PAYLOAD,2024-07-02 21:53:36,14.98329201,0.0003286,70.0,154.4193,268.6441,91.4342,1.5423e-06,-7.5e-07,0.0,0 STARLINK-5085,1 55392U 23014B   24184.91223162 -.00000075  00000-0  15423-5 0  9992,2 55392  70.0000 154.4193 0003286 268.6441  91.4342 14.98329201 80460,6950.195,96.107,574.344,569.777,0.0
55392.0,STARLINK-5085,PAYLOAD,2024-07-03 04:18:08,14.98330005,0.0003298,70.0,153.746,268.6011,91.477,7.5151e-06,-3e-08,0.0,0 STARLINK-5085,1 55392U 23014B   24185.17927073 -.00000003  00000-0  75151-5 0  9998,2 55392  70.0000 153.7460 0003298 268.6011  91.4770 14.98330005 79563,6950.193,96.107,574.35,569.766,0.0
55392.0,STARLINK-5085,PAYLOAD,2024-07-03 21:55:37,14.98327228,0.0003323,69.9998,151.8942,268.9977,91.0801,3.0703e-05,2.73e-06,0.0,0 STARLINK-5085,1 55392U 23014B   24185.91363105  .00000273  00000-0  30703-4 0  9991,2 55392  69.9998 151.8942 0003323 268.9977  91.0801 14.98327228 80615,6950.201,96.107,574.376,569.757,0.0
55392.0,STARLINK-5085,PAYLOAD,2024-07-04 04:20:09,14.98330499,0.0003326,69.9999,151.221,269.1193,90.9585,3.101e-05,2.77e-06,0.0,0 STARLINK-5085,1 55392U 23014B   24186.18066904  .00000277  00000-0  31010-4 0  9994,2 55392  69.9999 151.2210 0003326 269.1193  90.9585 14.98330499 79714,6950.191,96.107,574.368,569.745,0.0
